start=new Date('2023-02-02T00:00:00.000Z').valueOf();
sats=[{"OBJECT_TYPE":"PAYLOAD","APOAPSIS":"548.152","RCS_SIZE":"LARGE","TLE_LINE1":"1 46152U 20057AM  23032.33461451  .00002791  00000-0  20610-3 0  9990","COUNTRY_CODE":"US","EPOCH":"2023-02-01T08:01:50.693664","MEAN_ANOMALY":"270.6254","NORAD_CAT_ID":"46152","TIME_SYSTEM":"UTC","ECCENTRICITY":"0.00014110","OBJECT_NAME":"STARLINK-1634","MEAN_MOTION":"15.06412546","PERIOD":"95.591","REV_AT_EPOCH":"13539","INCLINATION":"53.0557","MEAN_ELEMENT_THEORY":"SGP4","CLASSIFICATION_TYPE":"U","ELEMENT_SET_NO":"999","ARG_OF_PERICENTER":"89.4897","DECAY_DATE":null,"PERIAPSIS":"546.198","CENTER_NAME":"EARTH","FILE":"3767525","LAUNCH_DATE":"2020-08-18","MEAN_MOTION_DOT":"0.00002791","GP_ID":"224193795","TLE_LINE2":"2 46152  53.0557 359.9471 0001411  89.4897 270.6254 15.06412546135396","RA_OF_ASC_NODE":"359.9471","OBJECT_ID":"2020-057AM","EPHEMERIS_TYPE":"0","SITE":"AFETR","MEAN_MOTION_DDOT":"0.0000000000000","SEMIMAJOR_AXIS":"6925.310","REF_FRAME":"TEME","BSTAR":"0.00020610000000"},{"TLE_LINE2":"2 46153  53.0559 340.3892 0001347  86.9594 273.1549 15.06408599136315","OBJECT_ID":"2020-057AN","RA_OF_ASC_NODE":"340.3892","GP_ID":"224165264","MEAN_MOTION_DDOT":"0.0000000000000","BSTAR":"0.00046117000000","REF_FRAME":"TEME","SEMIMAJOR_AXIS":"6925.322","EPHEMERIS_TYPE":"0","SITE":"AFETR","ELEMENT_SET_NO":"999","CLASSIFICATION_TYPE":"U","REV_AT_EPOCH":"13631","MEAN_ELEMENT_THEORY":"SGP4","INCLINATION":"53.0559","FILE":"3767099","CENTER_NAME":"EARTH","LAUNCH_DATE":"2020-08-18","MEAN_MOTION_DOT":"0.00006596","ARG_OF_PERICENTER":"86.9594","PERIAPSIS":"546.254","DECAY_DATE":null,"ECCENTRICITY":"0.00013470","TIME_SYSTEM":"UTC","MEAN_ANOMALY":"273.1549","NORAD_CAT_ID":"46153","PERIOD":"95.592","MEAN_MOTION":"15.06408599","OBJECT_NAME":"STARLINK-1636","OBJECT_TYPE":"PAYLOAD","APOAPSIS":"548.120","RCS_SIZE":"LARGE","EPOCH":"2023-02-01T05:42:35.375616","COUNTRY_CODE":"US","TLE_LINE1":"1 46153U 20057AN  23032.23790944  .00006596  00000-0  46117-3 0  9999"},{"ECCENTRICITY":"0.00013850","TIME_SYSTEM":"UTC","NORAD_CAT_ID":"46154","MEAN_ANOMALY":"253.3092","MEAN_MOTION":"15.06404383","PERIOD":"95.592","OBJECT_NAME":"STARLINK-1642","RCS_SIZE":"LARGE","OBJECT_TYPE":"PAYLOAD","APOAPSIS":"548.159","COUNTRY_CODE":"US","EPOCH":"2023-02-01T07:32:41.565408","TLE_LINE1":"1 46154U 20057AP  23032.31436997  .00001214  00000-0  10037-3 0  9998","OBJECT_ID":"2020-057AP","RA_OF_ASC_NODE":"350.0469","TLE_LINE2":"2 46154  53.0568 350.0469 0001385 106.8049 253.3092 15.06404383135536","GP_ID":"224194796","SEMIMAJOR_AXIS":"6925.335","BSTAR":"0.00010037000000","REF_FRAME":"TEME","MEAN_MOTION_DDOT":"0.0000000000000","SITE":"AFETR","EPHEMERIS_TYPE":"0","ELEMENT_SET_NO":"999","CLASSIFICATION_TYPE":"U","REV_AT_EPOCH":"13553","INCLINATION":"53.0568","MEAN_ELEMENT_THEORY":"SGP4","MEAN_MOTION_DOT":"0.00001214","CENTER_NAME":"EARTH","FILE":"3767525","LAUNCH_DATE":"2020-08-18","PERIAPSIS":"546.241","DECAY_DATE":null,"ARG_OF_PERICENTER":"106.8049"},{"TLE_LINE1":"1 46155U 20057AQ  23032.73733586 -.00000189  00000-0  61889-5 0  9993","EPOCH":"2023-02-01T17:41:45.818304","COUNTRY_CODE":"US","OBJECT_TYPE":"PAYLOAD","APOAPSIS":"548.016","RCS_SIZE":"LARGE","OBJECT_NAME":"STARLINK-1667","PERIOD":"95.592","MEAN_MOTION":"15.06397286","MEAN_ANOMALY":"262.6816","NORAD_CAT_ID":"46155","ECCENTRICITY":"0.00011470","TIME_SYSTEM":"UTC","ARG_OF_PERICENTER":"97.4303","PERIAPSIS":"546.428","DECAY_DATE":null,"CENTER_NAME":"EARTH","FILE":"3767565","LAUNCH_DATE":"2020-08-18","MEAN_MOTION_DOT":"-0.00000189","MEAN_ELEMENT_THEORY":"SGP4","REV_AT_EPOCH":"13667","INCLINATION":"53.0522","CLASSIFICATION_TYPE":"U","ELEMENT_SET_NO":"999","EPHEMERIS_TYPE":"0","SITE":"AFETR","MEAN_MOTION_DDOT":"0.0000000000000","BSTAR":"0.00000618890000","REF_FRAME":"TEME","SEMIMAJOR_AXIS":"6925.357","GP_ID":"224201363","TLE_LINE2":"2 46155  53.0522 318.1589 0001147  97.4303 262.6816 15.06397286136675","OBJECT_ID":"2020-057AQ","RA_OF_ASC_NODE":"318.1589"},{"TLE_LINE1":"1 46156U 20057AR  23032.26368867  .00003112  00000-0  22765-3 0  9994","EPOCH":"2023-02-01T06:19:42.701088","COUNTRY_CODE":"US","OBJECT_TYPE":"PAYLOAD","APOAPSIS":"548.206","RCS_SIZE":"LARGE","OBJECT_NAME":"STARLINK-1545","MEAN_MOTION":"15.06411896","PERIOD":"95.591","MEAN_ANOMALY":"270.2626","NORAD_CAT_ID":"46156","TIME_SYSTEM":"UTC","ECCENTRICITY":"0.00014860","ARG_OF_PERICENTER":"89.8534","DECAY_DATE":null,"PERIAPSIS":"546.148","FILE":"3767100","LAUNCH_DATE":"2020-08-18","CENTER_NAME":"EARTH","MEAN_MOTION_DOT":"0.00003112","REV_AT_EPOCH":"13633","MEAN_ELEMENT_THEORY":"SGP4","INCLINATION":"53.0542","CLASSIFICATION_TYPE":"U","ELEMENT_SET_NO":"999","SITE":"AFETR","EPHEMERIS_TYPE":"0","MEAN_MOTION_DDOT":"0.0000000000000","REF_FRAME":"TEME","BSTAR":"0.00022765000000","SEMIMAJOR_AXIS":"6925.312","GP_ID":"224165385","TLE_LINE2":"2 46156  53.0542 340.2805 0001486  89.8534 270.2626 15.06411896136333","OBJECT_ID":"2020-057AR","RA_OF_ASC_NODE":"340.2805"},{"ELEMENT_SET_NO":"999","CLASSIFICATION_TYPE":"U","INCLINATION":"53.0544","REV_AT_EPOCH":"13665","MEAN_ELEMENT_THEORY":"SGP4","FILE":"3767675","LAUNCH_DATE":"2020-08-18","CENTER_NAME":"EARTH","MEAN_MOTION_DOT":"0.00000594","ARG_OF_PERICENTER":"100.4719","PERIAPSIS":"546.120","DECAY_DATE":null,"TLE_LINE2":"2 46157  53.0544 318.8487 0001593 100.4719 259.6450 15.06396902136658","OBJECT_ID":"2020-057AS","RA_OF_ASC_NODE":"318.8487","GP_ID":"224204475","MEAN_MOTION_DDOT":"0.0000000000000","SEMIMAJOR_AXIS":"6925.358","BSTAR":"0.00005877500000","REF_FRAME":"TEME","SITE":"AFETR","EPHEMERIS_TYPE":"0","OBJECT_TYPE":"PAYLOAD","APOAPSIS":"548.326","RCS_SIZE":"LARGE","COUNTRY_CODE":"US","EPOCH":"2023-02-01T13:58:50.436480","TLE_LINE1":"1 46157U 20057AS  23032.58252820  .00000594  00000-0  58775-4 0  9993","ECCENTRICITY":"0.00015930","TIME_SYSTEM":"UTC","MEAN_ANOMALY":"259.6450","NORAD_CAT_ID":"46157","PERIOD":"95.592","MEAN_MOTION":"15.06396902","OBJECT_NAME":"STARLINK-1587"},{"TLE_LINE1":"1 46158U 20057AT  23032.18075333  .00008353  00000-0  57877-3 0  9994","COUNTRY_CODE":"US","EPOCH":"2023-02-01T04:20:17.087712","OBJECT_TYPE":"PAYLOAD","APOAPSIS":"548.370","RCS_SIZE":"LARGE","OBJECT_NAME":"STARLINK-1589","MEAN_MOTION":"15.06416144","PERIOD":"95.591","MEAN_ANOMALY":"269.6880","NORAD_CAT_ID":"46158","TIME_SYSTEM":"UTC","ECCENTRICITY":"0.00017410","ARG_OF_PERICENTER":"90.4309","DECAY_DATE":null,"PERIAPSIS":"545.958","FILE":"3767525","CENTER_NAME":"EARTH","LAUNCH_DATE":"2020-08-18","MEAN_MOTION_DOT":"0.00008353","REV_AT_EPOCH":"13719","INCLINATION":"53.0559","MEAN_ELEMENT_THEORY":"SGP4","ELEMENT_SET_NO":"999","CLASSIFICATION_TYPE":"U","SITE":"AFETR","EPHEMERIS_TYPE":"0","MEAN_MOTION_DDOT":"0.0000000000000","SEMIMAJOR_AXIS":"6925.299","REF_FRAME":"TEME","BSTAR":"0.00057877000000","GP_ID":"224194297","TLE_LINE2":"2 46158  53.0559 320.6503 0001741  90.4309 269.6880 15.06416144137192","RA_OF_ASC_NODE":"320.6503","OBJECT_ID":"2020-057AT"},{"TLE_LINE1":"1 46159U 20057AU  23032.28764773  .00004387  00000-0  31317-3 0  9993","COUNTRY_CODE":"US","EPOCH":"2023-02-01T06:54:12.763872","RCS_SIZE":"LARGE","APOAPSIS":"548.270","OBJECT_TYPE":"PAYLOAD","OBJECT_NAME":"STARLINK-1595","MEAN_MOTION":"15.06408317","PERIOD":"95.592","NORAD_CAT_ID":"46159","MEAN_ANOMALY":"257.0743","TIME_SYSTEM":"UTC","ECCENTRICITY":"0.00015630","PERIAPSIS":"546.106","DECAY_DATE":null,"ARG_OF_PERICENTER":"103.0420","MEAN_MOTION_DOT":"0.00004387","CENTER_NAME":"EARTH","FILE":"3767525","LAUNCH_DATE":"2020-08-18","MEAN_ELEMENT_THEORY":"SGP4","REV_AT_EPOCH":"13664","INCLINATION":"53.0541","CLASSIFICATION_TYPE":"U","ELEMENT_SET_NO":"999","SITE":"AFETR","EPHEMERIS_TYPE":"0","SEMIMAJOR_AXIS":"6925.323","REF_FRAME":"TEME","BSTAR":"0.00031317000000","MEAN_MOTION_DDOT":"0.0000000000000","GP_ID":"224195046","OBJECT_ID":"2020-057AU","RA_OF_ASC_NODE":"0.1731","TLE_LINE2":"2 46159  53.0541   0.1731 0001563 103.0420 257.0743 15.06408317136645"},{"EPHEMERIS_TYPE":"0","SITE":"AFETR","SEMIMAJOR_AXIS":"6925.323","REF_FRAME":"TEME","BSTAR":"0.00015492000000","MEAN_MOTION_DDOT":"0.0000000000000","GP_ID":"224193796","OBJECT_ID":"2020-057AV","RA_OF_ASC_NODE":"340.2138","TLE_LINE2":"2 46160  53.0532 340.2138 0001425  96.5211 263.5940 15.06408260136915","PERIAPSIS":"546.201","DECAY_DATE":null,"ARG_OF_PERICENTER":"96.5211","MEAN_MOTION_DOT":"0.00002027","FILE":"3767525","CENTER_NAME":"EARTH","LAUNCH_DATE":"2020-08-18","MEAN_ELEMENT_THEORY":"SGP4","REV_AT_EPOCH":"13691","INCLINATION":"53.0532","ELEMENT_SET_NO":"999","CLASSIFICATION_TYPE":"U","OBJECT_NAME":"STARLINK-1598","MEAN_MOTION":"15.06408260","PERIOD":"95.592","NORAD_CAT_ID":"46160","MEAN_ANOMALY":"263.5940","TIME_SYSTEM":"UTC","ECCENTRICITY":"0.00014250","TLE_LINE1":"1 46160U 20057AV  23032.27843105  .00002027  00000-0  15492-3 0  9996","COUNTRY_CODE":"US","EPOCH":"2023-02-01T06:40:56.442720","RCS_SIZE":"LARGE","APOAPSIS":"548.175","OBJECT_TYPE":"PAYLOAD"},{"SEMIMAJOR_AXIS":"6925.321","REF_FRAME":"TEME","BSTAR":"0.00018097000000","MEAN_MOTION_DDOT":"0.0000000000000","SITE":"AFETR","EPHEMERIS_TYPE":"0","RA_OF_ASC_NODE":"340.3105","OBJECT_ID":"2020-057AW","TLE_LINE2":"2 46161  53.0540 340.3105 0001357 104.2938 255.8202 15.06409023136910","GP_ID":"224194045","MEAN_MOTION_DOT":"0.00002416","FILE":"3767525","CENTER_NAME":"EARTH","LAUNCH_DATE":"2020-08-18","PERIAPSIS":"546.246","DECAY_DATE":null,"ARG_OF_PERICENTER":"104.2938","CLASSIFICATION_TYPE":"U","ELEMENT_SET_NO":"999","REV_AT_EPOCH":"13691","MEAN_ELEMENT_THEORY":"SGP4","INCLINATION":"53.0540","MEAN_MOTION":"15.06409023","PERIOD":"95.592","OBJECT_NAME":"STARLINK-1600","ECCENTRICITY":"0.00013570","TIME_SYSTEM":"UTC","NORAD_CAT_ID":"46161","MEAN_ANOMALY":"255.8202","COUNTRY_CODE":"US","EPOCH":"2023-02-01T06:09:05.644512","TLE_LINE1":"1 46161U 20057AW  23032.25631533  .00002416  00000-0  18097-3 0  9991","RCS_SIZE":"LARGE","APOAPSIS":"548.126","OBJECT_TYPE":"PAYLOAD"}];
